{"epoch":1784799577,"count":18318,"objects":[{"id":"68504","name":"ICEYE-X72","type":"PAYLOAD","l1":"1 68504U 26067CS  26203.83335648  .00079253  00000-0  66900-2 0  9996","l2":"2 68504  97.7635 161.7526 0000813 201.8668  30.2165 14.97740124  5789"},{"id":"68995","name":"ICEYE-X78","type":"PAYLOAD","l1":"1 68995U 26100R   26203.69218299  .00000500  00000-0  55032-4 0  9999","l2":"2 68995  97.7324 100.4829 0003155  39.4388 320.7060 14.91821376 11994"},{"id":"68996","name":"ICEYE-X82","type":"PAYLOAD","l1":"1 68996U 26100S   26203.64895967  .00001855  00000-0  19101-3 0  9998","l2":"2 68996  97.7319 100.3797 0005422  45.2687 314.8972 14.91447629 11988"}]}