{"fetched_at":"2026-07-23T07:05:46.622Z","source":"https://celestrak.org/NORAD/elements/gp.php?NAME=ICEYE&FORMAT=JSON","constellation":"iceye","records":[{"OBJECT_NAME":"ICEYE-X72","OBJECT_ID":"2026-067CS","EPOCH":"2026-07-22T20:00:01.999872","CLASSIFICATION_TYPE":"U","MEAN_MOTION":14.97740124,"ECCENTRICITY":0.00008132,"INCLINATION":97.7635,"RA_OF_ASC_NODE":161.7526,"ARG_OF_PERICENTER":201.8668,"MEAN_ANOMALY":30.2165,"EPHEMERIS_TYPE":0,"NORAD_CAT_ID":68504,"ELEMENT_SET_NO":999,"REV_AT_EPOCH":578,"BSTAR":0.0066899779,"MEAN_MOTION_DOT":0.00079253,"MEAN_MOTION_DDOT":0},{"OBJECT_NAME":"ICEYE-X78","OBJECT_ID":"2026-100R","EPOCH":"2026-07-22T16:36:44.610336","CLASSIFICATION_TYPE":"U","MEAN_MOTION":14.91821376,"ECCENTRICITY":0.00031552,"INCLINATION":97.7324,"RA_OF_ASC_NODE":100.4829,"ARG_OF_PERICENTER":39.4388,"MEAN_ANOMALY":320.706,"EPHEMERIS_TYPE":0,"NORAD_CAT_ID":68995,"ELEMENT_SET_NO":999,"REV_AT_EPOCH":1199,"BSTAR":0.000055031939,"MEAN_MOTION_DOT":0.000005,"MEAN_MOTION_DDOT":0},{"OBJECT_NAME":"ICEYE-X82","OBJECT_ID":"2026-100S","EPOCH":"2026-07-22T15:34:30.115488","CLASSIFICATION_TYPE":"U","MEAN_MOTION":14.91447629,"ECCENTRICITY":0.00054219,"INCLINATION":97.7319,"RA_OF_ASC_NODE":100.3797,"ARG_OF_PERICENTER":45.2687,"MEAN_ANOMALY":314.8972,"EPHEMERIS_TYPE":0,"NORAD_CAT_ID":68996,"ELEMENT_SET_NO":999,"REV_AT_EPOCH":1198,"BSTAR":0.000191012,"MEAN_MOTION_DOT":0.00001855,"MEAN_MOTION_DDOT":0}]}
